1 43905U 18111AF  20167.85580776  .00001350  00000-0  55437-4 0  9992
2 43905  97.2665  68.0205 0022044 144.3607 215.9109 15.25681553 81799
1 43905U 18111AF  20168.18374239  .00001272  00000-0  52421-4 0  9997
2 43905  97.2666  68.3391 0022069 143.2758 216.9998 15.25682083 81843
1 43905U 18111AF  20168.51167671  .00001216  00000-0  50238-4 0  9996
2 43905  97.2665  68.6578 0022094 142.1765 218.1031 15.25682690 81897
1 43905U 18111AF  20168.77402431  .00001127  00000-0  46734-4 0  9997
2 43905  97.2666  68.9127 0022126 141.2867 218.9962 15.25682852 81936
1 43905U 18111AF  20169.49547983  .00000960  00000-0  40219-4 0  9995
2 43905  97.2666  69.6136 0022202 138.8537 221.4380 15.25683456 82042
1 43905U 18111AF  20169.75782741  .00000781  00000-0  33239-4 0  9992
2 43905  97.2664  69.8685 0022230 137.8712 222.4240 15.25682993 82081
1 43905U 18111AF  20170.47928266  .00000673  00000-0  29017-4 0  9996
2 43905  97.2664  70.5696 0022297 135.4648 224.8388 15.25683404 82196
1 43905U 18111AF  20170.67604279  .00000714  00000-0  30646-4 0  9999
2 43905  97.2664  70.7608 0022309 134.8050 225.5008 15.25683999 82225
1 43905U 18111AF  20171.26632380  .00000640  00000-0  27723-4 0  9999
2 43905  97.2663  71.3342 0022368 132.8838 227.4283 15.25684390 82315
1 43905U 18111AF  20171.52867071  .00000635  00000-0  27552-4 0  9999
2 43905  97.2663  71.5891 0022388 132.0285 228.2864 15.25684712 82352
1 43905U 18111AF  20171.72543085  .00000634  00000-0  27486-4 0  9992
2 43905  97.2663  71.7803 0022401 131.3771 228.9398 15.25684995 82380
1 43905U 18111AF  20172.44688417  .00000669  00000-0  28851-4 0  9996
2 43905  97.2662  72.4812 0022452 128.9679 231.3565 15.25686255 82499
1 43905U 18111AF  20172.70922987  .00000775  00000-0  33014-4 0  9993
2 43905  97.2662  72.7362 0022457 128.0968 232.2300 15.25687505 82530
1 43905U 18111AF  20173.29950876  .00000835  00000-0  35333-4 0  9999
2 43905  97.2661  73.3097 0022505 126.1392 234.1933 15.25688861 82624
1 43905U 18111AF  20173.88978727  .00000831  00000-0  35165-4 0  9998
2 43905  97.2661  73.8832 0022545 124.1798 236.1583 15.25689873 82715
1 43905U 18111AF  20173.95537130  .00001085  00000-0  45089-4 0  9993
2 43905  97.2660  73.9468 0022537 123.9327 236.4058 15.25692127 82723
1 43905U 18111AF  20174.67681929  .00001422  00000-0  58228-4 0  9993
2 43905  97.2658  74.6477 0022606 121.5321 238.8129 15.25696094 82837
1 43905U 18111AF  20175.13592199  .00001538  00000-0  62732-4 0  9998
2 43905  97.2658  75.0937 0022648 120.0265 240.3224 15.25698179 82908
1 43905U 18111AF  20175.33267998  .00001629  00000-0  66291-4 0  9991
2 43905  97.2657  75.2849 0022658 119.3858 240.9647 15.25699325 82933
1 43905U 18111AF  20175.66061020  .00001747  00000-0  70864-4 0  9997
2 43905  97.2657  75.6036 0022681 118.2735 242.0796 15.25700881 82986
1 43905U 18111AF  20176.44764092  .00001998  00000-0  80622-4 0  9994
2 43905  97.2656  76.3682 0022725 115.6084 244.7506 15.25705019 83108
1 43905U 18111AF  20176.84115592  .00001884  00000-0  76205-4 0  9999
2 43905  97.2657  76.7506 0022747 114.3037 246.0581 15.25705987 83164
1 43905U 18111AF  20177.49701275  .00002014  00000-0  81260-4 0  9993
2 43905  97.2656  77.3878 0022793 112.1388 248.2273 15.25709240 83267
1 43905U 18111AF  20177.75935540  .00001960  00000-0  79147-4 0  9996
2 43905  97.2656  77.6426 0022811 111.2729 249.0948 15.25709969 83300
1 43905U 18111AF  20177.82494107  .00001933  00000-0  78091-4 0  9990
2 43905  97.2656  77.7064 0022815 111.0556 249.3126 15.25710056 83310
1 43905U 18111AF  20178.48079597  .00002077  00000-0  83699-4 0  9995
2 43905  97.2655  78.3436 0022856 108.9028 251.4691 15.25713445 83410
1 43905U 18111AF  20178.80872335  .00002003  00000-0  80811-4 0  9994
2 43905  97.2655  78.6622 0022871 107.8271 252.5465 15.25714341 83467
1 43905U 18111AF  20179.85808762  .00002045  00000-0  82422-4 0  9999
2 43905  97.2655  79.6816 0022902 104.4102 255.9681 15.25719077 83620
1 43905U 18111AF  20179.98925808  .00002016  00000-0  81284-4 0  9997
2 43905  97.2655  79.8091 0022904 103.9710 256.4077 15.25719426 83643
1 43905U 18111AF  20180.84186467  .00002149  00000-0  86447-4 0  9997
2 43905  97.2653  80.6373 0022980 101.2431 259.1392 15.25722993 83776
1 43905U 18111AF  20181.16978966  .00001981  00000-0  79905-4 0  9990
2 43905  97.2653  80.9559 0022989 100.1724 260.2109 15.25723876 83823
1 43905U 18111AF  20182.28473394  .00001629  00000-0  66194-4 0  9994
2 43905  97.2653  82.0392 0022983  96.4123 263.9733 15.25726061 83995
1 43905U 18111AF  20182.48148864  .00001589  00000-0  64635-4 0  9990
2 43905  97.2652  82.2303 0022981  95.7744 264.6116 15.25726431 84026
1 43905U 18111AF  20182.74382823  .00001491  00000-0  60841-4 0  9991
2 43905  97.2652  82.4851 0022991  94.9330 265.4535 15.25726715 84062
1 43905U 18111AF  20183.46526161  .00001289  00000-0  52958-4 0  9991
2 43905  97.2652  83.1861 0022997  92.6034 267.7837 15.25727620 84171
1 43905U 18111AF  20183.72760077  .00001220  00000-0  50259-4 0  9993
2 43905  97.2652  83.4409 0023001  91.7510 268.6363 15.25727978 84213
1 43905U 18111AF  20184.18669374  .00001163  00000-0  48057-4 0  9991
2 43905  97.2651  83.8870 0023007  90.2226 270.1649 15.25729055 84282
1 43905U 18111AF  20184.71137198  .00000972  00000-0  40636-4 0  9996
2 43905  97.2650  84.3966 0023006  88.5220 271.8654 15.25729119 84360
1 43905U 18111AF  20184.84254154  .00000924  00000-0  38769-4 0  9993
2 43905  97.2650  84.5240 0023007  88.1009 272.2864 15.25729093 84380
1 43905U 18111AF  20185.23604957  .00000904  00000-0  37984-4 0  9993
2 43905  97.2650  84.9064 0023009  86.8337 273.5533 15.25729840 84443
1 43905U 18111AF  20185.82631157  .00000738  00000-0  31505-4 0  9998
2 43905  97.2650  85.4798 0023022  84.9257 275.4609 15.25730077 84537
1 43905U 18111AF  20185.95748089  .00000727  00000-0  31070-4 0  9990
2 43905  97.2650  85.6073 0023024  84.5018 275.8846 15.25730202 84557
1 43905U 18111AF  20186.48215784  .00000703  00000-0  30136-4 0  9996
2 43905  97.2649  86.1170 0023027  82.8567 277.5289 15.25730878 84630
1 43905U 18111AF  20186.74449624  .00000672  00000-0  28954-4 0  9997
2 43905  97.2648  86.3719 0023028  81.9687 278.4163 15.25731121 84671
1 43905U 18111AF  20187.00683448  .00000679  00000-0  29201-4 0  9994
2 43905  97.2648  86.6268 0023027  81.1113 279.2731 15.25731540 84718
1 43905U 18111AF  20187.53151034  .00000765  00000-0  32544-4 0  9993
2 43905  97.2647  87.1366 0023018  79.4126 280.9704 15.25732905 84799
1 43905U 18111AF  20187.85943277  .00000751  00000-0  32002-4 0  9990
2 43905  97.2647  87.4551 0023010  78.3328 282.0491 15.25733363 84843
1 43905U 18111AF  20188.18735478  .00000817  00000-0  34589-4 0  9994
2 43905  97.2646  87.7736 0023004  77.2731 283.1077 15.25734355 84898
1 43905U 18111AF  20188.51527587  .00000927  00000-0  38848-4 0  9995
2 43905  97.2646  88.0923 0022995  76.1971 284.1824 15.25735799 84942
1 43905U 18111AF  20188.84319700  .00001019  00000-0  42433-4 0  9995
2 43905  97.2645  88.4108 0022978  75.0983 285.2798 15.25737128 84997
1 43905U 18111AF  20189.36787074  .00001132  00000-0  46857-4 0  9996
2 43905  97.2644  88.9204 0022975  73.3813 286.9946 15.25738955 85070
1 43905U 18111AF  20189.76137581  .00001161  00000-0  47983-4 0  9995
2 43905  97.2644  89.3027 0022964  72.0822 288.2918 15.25740035 85135
1 43905U 18111AF  20190.48280141  .00001142  00000-0  47244-4 0  9996
2 43905  97.2643  90.0035 0022948  69.7324 290.6379 15.25741557 85244
1 43905U 18111AF  20190.74513685  .00001278  00000-0  52499-4 0  9995
2 43905  97.2643  90.2584 0022944  68.8546 291.5142 15.25743179 85281
1 43905U 18111AF  20191.46655969  .00001445  00000-0  59031-4 0  9992
2 43905  97.2641  90.9591 0022927  66.5505 293.8141 15.25746222 85393
1 43905U 18111AF  20191.99122999  .00001522  00000-0  62004-4 0  9992
2 43905  97.2641  91.4689 0022890  64.8024 295.5584 15.25748303 85474
1 43905U 18111AF  20192.51589927  .00001760  00000-0  71257-4 0  9993
2 43905  97.2639  91.9786 0022893  63.0926 297.2648 15.25751383 85550
1 43905U 18111AF  20192.84381767  .00001714  00000-0  69479-4 0  9993
2 43905  97.2640  92.2972 0022884  62.0334 298.3217 15.25752247 85605
1 43905U 18111AF  20193.17173573  .00001705  00000-0  69120-4 0  9997
2 43905  97.2640  92.6157 0022867  60.9590 299.3935 15.25753365 85651
1 43905U 18111AF  20193.49965384  .00001611  00000-0  65463-4 0  9993
2 43905  97.2639  92.9343 0022851  59.8816 300.4683 15.25753884 85706
1 43905U 18111AF  20193.82757174  .00001543  00000-0  62827-4 0  9991
2 43905  97.2639  93.2528 0022840  58.8360 301.5114 15.25754559 85752
1 43905U 18111AF  20194.02432239  .00001506  00000-0  61368-4 0  9994
2 43905  97.2639  93.4439 0022829  58.1998 302.1459 15.25754931 85788
1 43905U 18111AF  20195.13924260  .00001301  00000-0  53418-4 0  9997
2 43905  97.2639  94.5269 0022769  54.5224 305.8135 15.25756542 85956
1 43905U 18111AF  20195.53274293  .00001291  00000-0  53018-4 0  9999
2 43905  97.2638  94.9092 0022738  53.2150 307.1171 15.25757554 86010
1 43905U 18111AF  20195.72949310  .00001263  00000-0  51906-4 0  9992
2 43905  97.2638  95.1003 0022723  52.5657 307.7644 15.25757913 86046
1 43905U 18111AF  20196.38532689  .00001162  00000-0  48003-4 0  9994
2 43905  97.2638  95.7374 0022673  50.3974 309.9262 15.25758872 86141
1 43905U 18111AF  20196.51649324  .00001139  00000-0  47114-4 0  9990
2 43905  97.2638  95.8648 0022669  49.9596 310.3627 15.25759211 86166
1 43905U 18111AF  20196.97557678  .00001013  00000-0  42178-4 0  9996
2 43905  97.2638  96.3107 0022638  48.4389 311.8786 15.25759384 86233
1 43905U 18111AF  20197.36907588  .00001048  00000-0  43545-4 0  9996
2 43905  97.2637  96.6930 0022606  47.1518 313.1615 15.25760545 86297
1 43905U 18111AF  20197.76257432  .00001119  00000-0  46312-4 0  9990
2 43905  97.2637  97.0751 0022591  45.8013 314.5077 15.25762073 86353
1 43905U 18111AF  20198.15607307  .00001081  00000-0  44821-4 0  9995
2 43905  97.2637  97.4574 0022549  44.5231 315.7815 15.25762751 86414
